IRIDIUM 26              
1 24903U 97043A   25236.55832682  .00000285  00000+0  89033-4 0  9999
2 24903  86.3899  81.8849 0002009  93.1450 266.9977 14.37186994466569
IRIDIUM 22              
1 24907U 97043E   25236.61444388  .00000269  00000+0  85977-4 0  9997
2 24907  86.3906  85.4627 0002187  90.8013 269.3434 14.35995307466594
DUMMY MASS 1            
1 24925U 97048A   25236.58566773  .00000315  00000+0  31995-4 0  9994
2 24925  86.3316 103.7036 0004224 261.0703  99.0044 14.87032680515299
DUMMY MASS 2            
1 24926U 97048B   25236.62651693  .00000315  00000+0  32170-4 0  9992
2 24926  86.3318 105.3056 0005019 278.9936  81.0721 14.86784527515072
IRIDIUM 29              
1 24944U 97051A   25236.61289955  .00000313  00000+0  99850-4 0  9999
2 24944  86.3947 115.2045 0002343  83.4401 276.7063 14.36513963463096
IRIDIUM 33              
1 24946U 97051C   25236.60026167  .00000215  00000+0  68748-4 0  9997
2 24946  86.3860 114.4756 0006723 201.0134 159.0787 14.34927365462558
IRIDIUM 28              
1 24948U 97051E   25236.61277987  .00000262  00000+0  80956-4 0  9995
2 24948  86.3946 112.6801 0001834  98.2661 261.8745 14.37424593463673
IRIDIUM 36              
1 24967U 97056C   25236.49578541  .00000267  00000+0  82382-4 0  9997
2 24967  86.4015 144.3309 0002283  91.8533 268.2926 14.37652111462033
